GLOBAL-31               
1 63027U 25033B   26189.56220319  .00006751  00000+0  18609-3 0  9990
2 63027  58.9973 229.7708 0011328  53.6227 306.5893 15.38227220 77613
GLOBAL-32               
1 64231U 25118B   26189.95991029  .00009498  00000+0  24976-3 0  9993
2 64231  58.9936  44.4110 0015903  57.3141 302.9466 15.39174477 61590
GLOBAL-33               
1 66554U 25267A   26190.32970330  .00009691  00000+0  26648-3 0  9996
2 66554  42.0200 287.4239 0008399  42.3015 317.8471 15.37229901 35452
GLOBAL-34               
1 68098U 26043A   26190.11523975  .00006795  00000+0  21604-3 0  9999
2 68098  42.0212  93.9496 0001425  61.8248 298.2734 15.33028510 19198
