{"fetched_at":"2026-07-10T07:59:01.963Z","source":"https://celestrak.org/NORAD/elements/gp.php?NAME=GLOBAL&FORMAT=JSON","constellation":"blacksky-gen3","records":[{"OBJECT_NAME":"GLOBAL-31","OBJECT_ID":"2025-033B","EPOCH":"2026-07-08T13:29:34.355616","CLASSIFICATION_TYPE":"U","MEAN_MOTION":15.3822722,"ECCENTRICITY":0.0011328,"INCLINATION":58.9973,"RA_OF_ASC_NODE":229.7708,"ARG_OF_PERICENTER":53.6227,"MEAN_ANOMALY":306.5893,"EPHEMERIS_TYPE":0,"NORAD_CAT_ID":63027,"ELEMENT_SET_NO":999,"REV_AT_EPOCH":7761,"BSTAR":0.00018609004,"MEAN_MOTION_DOT":0.00006751,"MEAN_MOTION_DDOT":0},{"OBJECT_NAME":"GLOBAL-32","OBJECT_ID":"2025-118B","EPOCH":"2026-07-08T23:02:16.249056","CLASSIFICATION_TYPE":"U","MEAN_MOTION":15.39174477,"ECCENTRICITY":0.00159031,"INCLINATION":58.9936,"RA_OF_ASC_NODE":44.411,"ARG_OF_PERICENTER":57.3141,"MEAN_ANOMALY":302.9466,"EPHEMERIS_TYPE":0,"NORAD_CAT_ID":64231,"ELEMENT_SET_NO":999,"REV_AT_EPOCH":6159,"BSTAR":0.0002497643,"MEAN_MOTION_DOT":0.00009498,"MEAN_MOTION_DDOT":0},{"OBJECT_NAME":"GLOBAL-33","OBJECT_ID":"2025-267A","EPOCH":"2026-07-09T07:54:46.365120","CLASSIFICATION_TYPE":"U","MEAN_MOTION":15.37229901,"ECCENTRICITY":0.00083993,"INCLINATION":42.02,"RA_OF_ASC_NODE":287.4239,"ARG_OF_PERICENTER":42.3015,"MEAN_ANOMALY":317.8471,"EPHEMERIS_TYPE":0,"NORAD_CAT_ID":66554,"ELEMENT_SET_NO":999,"REV_AT_EPOCH":3545,"BSTAR":0.0002664807,"MEAN_MOTION_DOT":0.00009691,"MEAN_MOTION_DDOT":0},{"OBJECT_NAME":"GLOBAL-34","OBJECT_ID":"2026-043A","EPOCH":"2026-07-09T02:45:56.714400","CLASSIFICATION_TYPE":"U","MEAN_MOTION":15.3302851,"ECCENTRICITY":0.00014257,"INCLINATION":42.0212,"RA_OF_ASC_NODE":93.9496,"ARG_OF_PERICENTER":61.8248,"MEAN_ANOMALY":298.2734,"EPHEMERIS_TYPE":0,"NORAD_CAT_ID":68098,"ELEMENT_SET_NO":999,"REV_AT_EPOCH":1919,"BSTAR":0.00021604105,"MEAN_MOTION_DOT":0.00006795,"MEAN_MOTION_DDOT":0}]}
